IRIDIUM 156             
1 43576U 18061H   26158.48937925  .00000286  00000+0  95203-4 0  9998
2 43576  86.3965  60.7842 0002135  81.3998 278.7440 14.34219358411985
IRIDIUM 164             
1 43577U 18061J   26158.47035191  .00000144  00000+0  44350-4 0  9992
2 43577  86.3966  60.8323 0002069  88.1618 271.9814 14.34217311412025
IRIDIUM 159             
1 43578U 18061K   26158.43863865  .00000272  00000+0  90233-4 0  9999
2 43578  86.3966  60.7827 0002314  85.6855 274.4605 14.34219290411980
IRIDIUM 180             
1 43922U 19002A   26158.29859858  .00000058  00000+0  13662-4 0  9992
2 43922  86.3973 357.7326 0002257  89.4746 270.6709 14.34218057387571
IRIDIUM 176             
1 43923U 19002B   26157.62399367  .00000804  00000+0  12364-3 0  9999
2 43923  86.6095 357.9594 0002199  90.4585 269.6885 14.72252866397692
IRIDIUM 168             
1 43924U 19002C   26158.08295106  .00000023  00000+0  12987-5 0  9993
2 43924  86.3977 357.8997 0002205  89.3695 270.7753 14.34217618387524
IRIDIUM 173             
1 43925U 19002D   26158.27956957  .00000184  00000+0  58465-4 0  9991
2 43925  86.3975 357.7066 0002263  87.3328 272.8127 14.34217471387530
IRIDIUM 169             
1 43926U 19002E   26158.37532122  .00000308  00000+0  94335-4 0  9991
2 43926  86.4236  29.2957 0002191  71.0588 289.0848 14.38610176388815
IRIDIUM 172             
1 43927U 19002F   26157.78484897  .00000049  00000+0  10429-4 0  9995
2 43927  86.3973 357.9214 0002270  89.0585 271.0871 14.34217834387472
IRIDIUM 175             
1 43928U 19002G   26158.08653705  .00000343  00000+0  95364-4 0  9994
2 43928  86.4506 294.7441 0001233 224.3030 135.8072 14.43607062397526
IRIDIUM 171             
1 43929U 19002H   26158.25420066  .00000019  00000+0 -20369-6 0  9992
2 43929  86.3984 358.0305 0002016  87.2383 272.9043 14.34217574387532
IRIDIUM 170             
1 43930U 19002J   26157.83408118  .00000232  00000+0  32903-4 0  9992
2 43930  86.6093 357.8739 0002366  87.1284 273.0204 14.72252497397732
IRIDIUM 167             
1 43931U 19002K   26158.31762605  .00000018  00000+0 -50579-6 0  9995
2 43931  86.3973 357.7209 0001873  85.8923 274.2487 14.34217582387543
IRIDIUM 181             
1 56726U 23068S   26158.19235661  .00000389  00000+0  10971-3 0  9990
2 56726  86.4503  60.9682 0002267  89.9908 270.1552 14.43309523160996
IRIDIUM 177             
1 56727U 23068T   26157.77668883  .00001248  00000+0  16077-3 0  9998
2 56727  86.1959 333.7375 0002472  86.8854 273.2650 14.80221466164822
IRIDIUM 174             
1 56728U 23068U   26158.29749227  .00000704  00000+0  10780-3 0  9990
2 56728  86.6100 357.8268 0002595  85.9304 274.2209 14.72250387164567
IRIDIUM 178             
1 56729U 23068V   26158.37422338  .00001135  00000+0  14602-3 0  9997
2 56729  86.6566  29.4621 0002413  89.5605 270.5893 14.80219389164915
IRIDIUM 179             
1 56730U 23068W   26158.36888005  .00001003  00000+0  12856-3 0  9998
2 56730  86.6788  38.4142 0002378  87.7269 272.4224 14.80233834164917
